STARLINK-1016_new
1 14722C 19074K   21326.16790221  .00003807  00000-0  25513-3 0  3263
2 14722  53.0552  27.9873 0001214  40.4438 177.9497 15.06388762    19
STARLINK-1016_old
1 24722C 19074K   21325.11043234  .00006395  00000-0  42868-3 0  3258
2 24722  53.0551  32.7343 0001180  42.4750 198.1253 15.06371645    12
